CCSDS_OMM_VERS = 2.0
CREATION_DATE  = 
ORIGINATOR     = 

OBJECT_NAME    = ATLAS CENTAUR 2
OBJECT_ID      = 1963-047A
CENTER_NAME    = EARTH
REF_FRAME      = TEME
TIME_SYSTEM    = UTC
MEAN_ELEMENT_THEORY = SGP/SGP4

EPOCH          = 2026-02-02T06:27:12.787200
MEAN_MOTION    = 14.11966551
ECCENTRICITY   = .0548138
INCLINATION    = 30.3543
RA_OF_ASC_NODE = 33.5743
ARG_OF_PERICENTER = 128.1647
MEAN_ANOMALY   = 236.9642

EPHEMERIS_TYPE = 0
CLASSIFICATION_TYPE = U
NORAD_CAT_ID   = 694
ELEMENT_SET_NO = 999
REV_AT_EPOCH   = 12661
BSTAR          = .14331E-3
MEAN_MOTION_DOT = .1265E-4
MEAN_MOTION_DDOT = 0

CCSDS_OMM_VERS = 2.0
CREATION_DATE  = 
ORIGINATOR     = 

OBJECT_NAME    = THOR AGENA D R/B
OBJECT_ID      = 1964-002A
CENTER_NAME    = EARTH
REF_FRAME      = TEME
TIME_SYSTEM    = UTC
MEAN_ELEMENT_THEORY = SGP/SGP4

EPOCH          = 2026-02-02T11:53:50.891424
MEAN_MOTION    = 14.33996994
ECCENTRICITY   = .00329388
INCLINATION    = 99.1226
RA_OF_ASC_NODE = 44.9173
ARG_OF_PERICENTER = 2.7581
MEAN_ANOMALY   = 357.3777

EPHEMERIS_TYPE = 0
CLASSIFICATION_TYPE = U
NORAD_CAT_ID   = 733
ELEMENT_SET_NO = 999
REV_AT_EPOCH   = 23325
BSTAR          = .10560818E-3
MEAN_MOTION_DOT = .248E-5
MEAN_MOTION_DDOT = 0

CCSDS_OMM_VERS = 2.0
CREATION_DATE  = 
ORIGINATOR     = 

OBJECT_NAME    = SL-3 R/B
OBJECT_ID      = 1964-053B
CENTER_NAME    = EARTH
REF_FRAME      = TEME
TIME_SYSTEM    = UTC
MEAN_ELEMENT_THEORY = SGP/SGP4

EPOCH          = 2026-02-02T10:44:55.641408
MEAN_MOTION    = 14.61329506
ECCENTRICITY   = .00779263
INCLINATION    = 65.0763
RA_OF_ASC_NODE = 74.5558
ARG_OF_PERICENTER = 303.4302
MEAN_ANOMALY   = 55.9362

EPHEMERIS_TYPE = 0
CLASSIFICATION_TYPE = U
NORAD_CAT_ID   = 877
ELEMENT_SET_NO = 999
REV_AT_EPOCH   = 26164
BSTAR          = .87207907E-4
MEAN_MOTION_DOT = .325E-5
MEAN_MOTION_DDOT = 0

CCSDS_OMM_VERS = 2.0
CREATION_DATE  = 
ORIGINATOR     = 

OBJECT_NAME    = SL-8 R/B
OBJECT_ID      = 1967-045B
CENTER_NAME    = EARTH
REF_FRAME      = TEME
TIME_SYSTEM    = UTC
MEAN_ELEMENT_THEORY = SGP/SGP4

EPOCH          = 2026-02-02T11:44:19.845312
MEAN_MOTION    = 14.45588418
ECCENTRICITY   = .00629082
INCLINATION    = 74.0098
RA_OF_ASC_NODE = 53.8267
ARG_OF_PERICENTER = 69.1567
MEAN_ANOMALY   = 291.6313

EPHEMERIS_TYPE = 0
CLASSIFICATION_TYPE = U
NORAD_CAT_ID   = 2802
ELEMENT_SET_NO = 999
REV_AT_EPOCH   = 8393
BSTAR          = .78534042E-4
MEAN_MOTION_DOT = .256E-5
MEAN_MOTION_DDOT = 0

CCSDS_OMM_VERS = 2.0
CREATION_DATE  = 
ORIGINATOR     = 

OBJECT_NAME    = SL-8 R/B
OBJECT_ID      = 1968-040B
CENTER_NAME    = EARTH
REF_FRAME      = TEME
TIME_SYSTEM    = UTC
MEAN_ELEMENT_THEORY = SGP/SGP4

EPOCH          = 2026-02-02T10:25:45.717024
MEAN_MOTION    = 15.02974829
ECCENTRICITY   = .00255883
INCLINATION    = 74.0308
RA_OF_ASC_NODE = 25.7123
ARG_OF_PERICENTER = 219.3791
MEAN_ANOMALY   = 140.5538

EPHEMERIS_TYPE = 0
CLASSIFICATION_TYPE = U
NORAD_CAT_ID   = 3230
ELEMENT_SET_NO = 999
REV_AT_EPOCH   = 8471
BSTAR          = .26549161E-3
MEAN_MOTION_DOT = .3554E-4
MEAN_MOTION_DDOT = 0

CCSDS_OMM_VERS = 2.0
CREATION_DATE  = 
ORIGINATOR     = 

OBJECT_NAME    = OAO 2
OBJECT_ID      = 1968-110A
CENTER_NAME    = EARTH
REF_FRAME      = TEME
TIME_SYSTEM    = UTC
MEAN_ELEMENT_THEORY = SGP/SGP4

EPOCH          = 2026-02-02T12:43:24.400992
MEAN_MOTION    = 14.47284876
ECCENTRICITY   = .00061333
INCLINATION    = 34.9931
RA_OF_ASC_NODE = 101.5220
ARG_OF_PERICENTER = 275.9486
MEAN_ANOMALY   = 84.0506

EPHEMERIS_TYPE = 0
CLASSIFICATION_TYPE = U
NORAD_CAT_ID   = 3597
ELEMENT_SET_NO = 999
REV_AT_EPOCH   = 1400
BSTAR          = .93292561E-4
MEAN_MOTION_DOT = .327E-5
MEAN_MOTION_DDOT = 0

CCSDS_OMM_VERS = 2.0
CREATION_DATE  = 
ORIGINATOR     = 

OBJECT_NAME    = ISIS 1
OBJECT_ID      = 1969-009A
CENTER_NAME    = EARTH
REF_FRAME      = TEME
TIME_SYSTEM    = UTC
MEAN_ELEMENT_THEORY = SGP/SGP4

EPOCH          = 2026-02-02T09:39:30.085920
MEAN_MOTION    = 11.30396651
ECCENTRICITY   = .17078664
INCLINATION    = 88.4549
RA_OF_ASC_NODE = 159.1535
ARG_OF_PERICENTER = 160.3616
MEAN_ANOMALY   = 207.2361

EPHEMERIS_TYPE = 0
CLASSIFICATION_TYPE = U
NORAD_CAT_ID   = 3669
ELEMENT_SET_NO = 999
REV_AT_EPOCH   = 34454
BSTAR          = .24919718E-3
MEAN_MOTION_DOT = .365E-5
MEAN_MOTION_DDOT = 0

CCSDS_OMM_VERS = 2.0
CREATION_DATE  = 
ORIGINATOR     = 

OBJECT_NAME    = SERT 2
OBJECT_ID      = 1970-009A
CENTER_NAME    = EARTH
REF_FRAME      = TEME
TIME_SYSTEM    = UTC
MEAN_ELEMENT_THEORY = SGP/SGP4

EPOCH          = 2026-02-02T10:28:09.882336
MEAN_MOTION    = 13.58725797
ECCENTRICITY   = .00039727
INCLINATION    = 99.2714
RA_OF_ASC_NODE = 338.4677
ARG_OF_PERICENTER = 253.9671
MEAN_ANOMALY   = 214.5424

EPHEMERIS_TYPE = 0
CLASSIFICATION_TYPE = U
NORAD_CAT_ID   = 4327
ELEMENT_SET_NO = 999
REV_AT_EPOCH   = 77510
BSTAR          = .65090333E-4
MEAN_MOTION_DOT = .6E-7
MEAN_MOTION_DDOT = 0

CCSDS_OMM_VERS = 2.0
CREATION_DATE  = 
ORIGINATOR     = 

OBJECT_NAME    = SL-3 R/B
OBJECT_ID      = 1971-028B
CENTER_NAME    = EARTH
REF_FRAME      = TEME
TIME_SYSTEM    = UTC
MEAN_ELEMENT_THEORY = SGP/SGP4

EPOCH          = 2026-02-02T15:01:56.621856
MEAN_MOTION    = 15.58376012
ECCENTRICITY   = .00177775
INCLINATION    = 81.2364
RA_OF_ASC_NODE = 95.2492
ARG_OF_PERICENTER = 57.3793
MEAN_ANOMALY   = 302.9171

EPHEMERIS_TYPE = 0
CLASSIFICATION_TYPE = U
NORAD_CAT_ID   = 5118
ELEMENT_SET_NO = 999
REV_AT_EPOCH   = 98320
BSTAR          = .44267243E-3
MEAN_MOTION_DOT = .3399E-3
MEAN_MOTION_DDOT = 0

CCSDS_OMM_VERS = 2.0
CREATION_DATE  = 
ORIGINATOR     = 

OBJECT_NAME    = ASTEX 1
OBJECT_ID      = 1971-089A
CENTER_NAME    = EARTH
REF_FRAME      = TEME
TIME_SYSTEM    = UTC
MEAN_ELEMENT_THEORY = SGP/SGP4

EPOCH          = 2026-02-02T13:49:46.999488
MEAN_MOTION    = 14.50725160
ECCENTRICITY   = .00149673
INCLINATION    = 92.7155
RA_OF_ASC_NODE = 140.3984
ARG_OF_PERICENTER = 195.2403
MEAN_ANOMALY   = 164.8355

EPHEMERIS_TYPE = 0
CLASSIFICATION_TYPE = U
NORAD_CAT_ID   = 5560
ELEMENT_SET_NO = 999
REV_AT_EPOCH   = 85721
BSTAR          = .15752085E-3
MEAN_MOTION_DOT = .619E-5
MEAN_MOTION_DDOT = 0

CCSDS_OMM_VERS = 2.0
CREATION_DATE  = 
ORIGINATOR     = 

OBJECT_NAME    = SL-8 R/B
OBJECT_ID      = 1971-119B
CENTER_NAME    = EARTH
REF_FRAME      = TEME
TIME_SYSTEM    = UTC
MEAN_ELEMENT_THEORY = SGP/SGP4

EPOCH          = 2026-02-02T00:27:43.864416
MEAN_MOTION    = 14.36803282
ECCENTRICITY   = .05546537
INCLINATION    = 73.8850
RA_OF_ASC_NODE = 242.3442
ARG_OF_PERICENTER = 216.2783
MEAN_ANOMALY   = 139.9555

EPHEMERIS_TYPE = 0
CLASSIFICATION_TYPE = U
NORAD_CAT_ID   = 5730
ELEMENT_SET_NO = 999
REV_AT_EPOCH   = 65036
BSTAR          = .43418292E-3
MEAN_MOTION_DOT = .8343E-4
MEAN_MOTION_DDOT = 0

CCSDS_OMM_VERS = 2.0
CREATION_DATE  = 
ORIGINATOR     = 

OBJECT_NAME    = OAO 3 (COPERNICUS)
OBJECT_ID      = 1972-065A
CENTER_NAME    = EARTH
REF_FRAME      = TEME
TIME_SYSTEM    = UTC
MEAN_ELEMENT_THEORY = SGP/SGP4

EPOCH          = 2026-02-02T13:50:17.592864
MEAN_MOTION    = 14.59964743
ECCENTRICITY   = .00070963
INCLINATION    = 35.0049
RA_OF_ASC_NODE = 137.3621
ARG_OF_PERICENTER = 237.1055
MEAN_ANOMALY   = 140.4408

EPHEMERIS_TYPE = 0
CLASSIFICATION_TYPE = U
NORAD_CAT_ID   = 6153
ELEMENT_SET_NO = 999
REV_AT_EPOCH   = 84106
BSTAR          = .96752064E-4
MEAN_MOTION_DOT = .45E-5
MEAN_MOTION_DDOT = 0

