ATLAS CENTAUR 2         
1 00694U 63047A   26033.26889800  .00001265  00000+0  14331-3 0  9992
2 00694  30.3543  33.5743 0548138 128.1647 236.9642 14.11966551126619
THOR AGENA D R/B        
1 00733U 64002A   26033.49572791  .00000248  00000+0  10561-3 0  9992
2 00733  99.1226  44.9173 0032938   2.7581 357.3777 14.33996994233251
SL-3 R/B                
1 00877U 64053B   26033.44786622  .00000325  00000+0  87208-4 0  9991
2 00877  65.0763  74.5558 0077926 303.4302  55.9362 14.61329506261647
SL-8 R/B                
1 02802U 67045B   26033.48911858  .00000256  00000+0  78534-4 0  9995
2 02802  74.0098  53.8267 0062908  69.1567 291.6313 14.45588418 83938
SL-8 R/B                
1 03230U 68040B   26033.43455691  .00003554  00000+0  26549-3 0  9992
2 03230  74.0308  25.7123 0025588 219.3791 140.5538 15.02974829 84715
OAO 2                   
1 03597U 68110A   26033.53014353  .00000327  00000+0  93293-4 0  9999
2 03597  34.9931 101.5220 0006133 275.9486  84.0506 14.47284876 14009
ISIS 1                  
1 03669U 69009A   26033.40243155  .00000365  00000+0  24920-3 0  9999
2 03669  88.4549 159.1535 1707866 160.3616 207.2361 11.30396651344547
SERT 2                  
1 04327U 70009A   26033.43622549  .00000006  00000+0  65090-4 0  9990
2 04327  99.2714 338.4677 0003972 253.9671 214.5424 13.58725797775108
SL-3 R/B                
1 05118U 71028B   26033.62634979  .00033990  00000+0  44267-3 0  9992
2 05118  81.2364  95.2492 0017777  57.3793 302.9171 15.58376012983208
ASTEX 1                 
1 05560U 71089A   26033.57623842  .00000619  00000+0  15752-3 0  9990
2 05560  92.7155 140.3984 0014967 195.2403 164.8355 14.50725160857213
SL-8 R/B                
1 05730U 71119B   26033.01925769  .00008343  00000+0  43418-3 0  9997
2 05730  73.8850 242.3442 0554653 216.2783 139.9555 14.36803282650360
OAO 3 (COPERNICUS)      
1 06153U 72065A   26033.57659251  .00000450  00000+0  96752-4 0  9990
2 06153  35.0049 137.3621 0007096 237.1055 140.4408 14.59964743841068
